SPAWAR-CAL-R            
1 43776U 18099U   26067.65115975  .00003570  00000+0  25336-3 0  9990
2 43776  97.4524 111.5817 0019701 348.9052  11.1737 15.05212097396878
STARLINK-3419           
1 51463U 22010H   26068.87293523  .00002790  00000+0  19341-3 0  9993
2 51463  53.2160 278.2949 0001293 119.6861 240.4260 15.08823731226541
