[{"OBJECT_NAME":"SPAWAR-CAL-R","OBJECT_ID":"2018-099U","EPOCH":"2026-03-08T15:37:40.202400","MEAN_MOTION":15.05212097,"ECCENTRICITY":0.00197014,"INCLINATION":97.4524,"RA_OF_ASC_NODE":111.5817,"ARG_OF_PERICENTER":348.9052,"MEAN_ANOMALY":11.1737,"EPHEMERIS_TYPE":0,"CLASSIFICATION_TYPE":"U","NORAD_CAT_ID":43776,"ELEMENT_SET_NO":999,"REV_AT_EPOCH":39687,"BSTAR":0.00025335573,"MEAN_MOTION_DOT":3.57e-5,"MEAN_MOTION_DDOT":0},{"OBJECT_NAME":"STARLINK-3419","OBJECT_ID":"2022-010H","EPOCH":"2026-03-09T20:57:01.604736","MEAN_MOTION":15.08823731,"ECCENTRICITY":0.00012931,"INCLINATION":53.216,"RA_OF_ASC_NODE":278.2949,"ARG_OF_PERICENTER":119.6861,"MEAN_ANOMALY":240.426,"EPHEMERIS_TYPE":0,"CLASSIFICATION_TYPE":"U","NORAD_CAT_ID":51463,"ELEMENT_SET_NO":999,"REV_AT_EPOCH":22654,"BSTAR":0.00019341287,"MEAN_MOTION_DOT":2.79e-5,"MEAN_MOTION_DDOT":0}]
